[{"OBJECT_NAME":"OBJECT B","OBJECT_ID":"2024-153B","EPOCH":"2026-03-09T23:15:18.632160","MEAN_MOTION":15.30512917,"ECCENTRICITY":0.00113423,"INCLINATION":97.6622,"RA_OF_ASC_NODE":204.9195,"ARG_OF_PERICENTER":149.8438,"MEAN_ANOMALY":210.3457,"EPHEMERIS_TYPE":0,"CLASSIFICATION_TYPE":"U","NORAD_CAT_ID":60746,"ELEMENT_SET_NO":999,"REV_AT_EPOCH":8476,"BSTAR":0.00066193599,"MEAN_MOTION_DOT":0.00019515,"MEAN_MOTION_DDOT":0},{"OBJECT_NAME":"STARLINK-34190","OBJECT_ID":"2025-107Q","EPOCH":"2026-03-09T09:06:12.331296","MEAN_MOTION":15.27578913,"ECCENTRICITY":0.00017564,"INCLINATION":42.9997,"RA_OF_ASC_NODE":203.2434,"ARG_OF_PERICENTER":280.7177,"MEAN_ANOMALY":79.3477,"EPHEMERIS_TYPE":0,"CLASSIFICATION_TYPE":"U","NORAD_CAT_ID":64078,"ELEMENT_SET_NO":999,"REV_AT_EPOCH":4607,"BSTAR":0.00093171825,"MEAN_MOTION_DOT":0.00025465,"MEAN_MOTION_DDOT":0}]
